OBJECT_NAME,OBJECT_ID,EPOCH,MEAN_MOTION,ECCENTRICITY,INCLINATION,RA_OF_ASC_NODE,ARG_OF_PERICENTER,MEAN_ANOMALY,EPHEMERIS_TYPE,CLASSIFICATION_TYPE,NORAD_CAT_ID,ELEMENT_SET_NO,REV_AT_EPOCH,BSTAR,MEAN_MOTION_DOT,MEAN_MOTION_DDOT
ZHEDA PIXING 3A,2020-039B,2021-02-06T11:49:18.602688,15.24321834,.0014502,97.3416,159.9447,158.9844,263.4990,0,U,45795,999,3565,.51399E-4,.1189E-4,0
HEAD-5,2020-039C,2021-02-06T13:30:36.252576,15.24833091,.0014571,97.3416,160.1375,163.7495,254.6327,0,U,45796,999,3567,.71732E-4,.1714E-4,0
RED-EYE 2 (MERLOT),1998-067RM,2021-02-06T04:19:49.300608,15.51767936,.0001744,51.6413,268.4542,150.1209,209.9881,0,U,45800,999,3629,.57813E-4,.3051E-4,0
BEIDOU-3 G3,2020-040A,2021-02-06T03:17:42.675072,1.00272878,.0010161,2.5862,298.3866,12.6759,345.3719,0,U,45807,999,245,0,-.357E-5,0
RED-EYE 3 (CABERNET),1998-067RN,2021-02-06T10:31:37.059168,15.51769807,.0002027,51.6413,267.1789,143.8947,216.2180,0,U,45809,999,3531,.57264E-4,.3017E-4,0
NAVSTAR 79 (USA 304),2020-041A,2021-02-06T07:23:26.904192,2.00567266,.0009193,55.1786,106.1090,146.0705,214.0360,0,U,45854,999,478,0,-.46E-6,0
GAOFEN DUOMO (GFDM),2020-042A,2021-02-06T11:56:17.829312,14.76738256,.0013367,97.9939,114.7395,289.3400,70.6366,0,U,45856,999,3222,.16346E-4,.63E-6,0
BY70-2,2020-042B,2021-02-06T09:47:10.531392,14.76668433,.0009615,97.9947,114.4989,272.8873,87.1237,0,U,45857,999,3220,.14995E-3,.998E-5,0
SHIYAN 6 02 (SY-6 02),2020-043A,2021-02-06T14:39:12.424608,14.69445084,.0007785,98.2056,49.5288,316.3700,43.6889,0,U,45859,999,3170,.1668E-4,.48E-6,0
APSTAR 6D,2020-045A,2021-02-05T14:03:16.560576,1.00267893,.000134,0.0453,101.4679,266.6505,112.5843,0,U,45863,999,223,0,-.323E-5,0
DEMI,1998-067RP,2021-02-06T08:14:37.955904,15.54381382,.0003025,51.6408,265.8046,104.4271,255.7055,0,U,45916,999,3231,.11968E-3,.7523E-4,0
TECHEDSAT 10,1998-067RQ,2021-02-06T07:09:30.202272,15.75493874,.0006873,51.6319,255.6965,178.1559,181.9467,0,U,45917,999,3239,.74745E-3,.117171E-2,0
KOREASAT 116,2020-048A,2021-02-06T13:44:42.609696,1.00270501,.0000971,0.0178,89.3372,235.5197,134.4164,0,U,45920,999,202,0,-.37E-5,0
PROGRESS-MS 15,2020-050A,2021-02-06T12:22:20.343936,15.48935862,.0002515,51.6454,269.0412,341.0902,88.5859,0,U,45937,999,26834,.74497E-6,-.408E-5,0
2020-051A,2020-051A,2021-02-06T13:27:17.766720,15.21315816,.0012079,97.4776,116.2768,4.8225,106.2526,0,U,45939,999,2987,.27753E-4,.551E-5,0
2020-051B,2020-051B,2021-02-06T13:02:52.261152,15.25834654,.0010177,97.4772,117.3523,311.5879,162.1700,0,U,45940,999,2992,.8609E-4,.213E-4,0
2020-051C,2020-051C,2021-02-06T13:28:11.852256,15.25457944,.0011015,97.4785,117.3708,311.2367,160.1538,0,U,45941,999,2992,.46534E-4,.1105E-4,0
2020-053A,2020-053A,2021-02-06T09:32:42.860256,1.00268622,.0001339,0.0415,270.9815,122.5015,349.3895,0,U,45985,999,202,0,-.328E-5,0
2020-053B,2020-053B,2021-02-05T20:23:42.847872,1.00271271,.0000715,0.0378,252.6846,299.8322,329.5916,0,U,45986,999,201,0,-.141E-5,0
GAOFEN 9-04,2020-054A,2021-02-06T12:50:46.154688,15.23577902,.0013217,97.4519,113.9874,335.3517,138.3496,0,U,46025,999,2806,.34104E-4,.745E-5,0
Q-SAT,2020-054B,2021-02-06T12:32:16.598112,15.24391839,.0016472,97.4513,114.1522,347.0332,137.9487,0,U,46026,999,2808,.50073E-4,.1158E-4,0
STARLINK-1522,2020-055A,2021-02-06T10:43:22.548864,15.06399983,.0001749,53.0567,184.0975,102.1777,257.9408,0,U,46027,999,2895,.63646E-4,.667E-5,0
STARLINK-1523,2020-055B,2021-02-06T09:29:02.353632,15.06385829,.000171,53.0572,184.3086,102.6986,257.4195,0,U,46028,999,2896,.3376E-4,.221E-5,0
STARLINK-1526,2020-055C,2021-02-06T10:53:56.425920,15.06415927,.0001945,53.0605,184.0416,104.5252,255.5953,0,U,46029,999,2896,.95769E-4,.1146E-4,0
STARLINK-1534,2020-055D,2021-02-06T12:56:03.319584,15.06388551,.0001641,53.0566,183.6723,91.8055,268.3122,0,U,46030,999,2893,.34697E-4,.235E-5,0
STARLINK-1544,2020-055E,2021-02-06T13:01:20.005824,15.06407648,.0002151,53.0553,183.6564,108.0758,252.0466,0,U,46031,999,2896,.49715E-4,.459E-5,0
STARLINK-1555,2020-055F,2021-02-06T10:32:43.319328,15.06408839,.0002238,53.0568,184.1167,98.2364,261.8879,0,U,46032,999,2896,.42326E-4,.349E-5,0
STARLINK-1556,2020-055G,2021-02-06T13:17:16.586880,15.06405702,.0002083,53.0578,183.6059,112.0552,248.0658,0,U,46033,999,2895,.49353E-4,.454E-5,0
STARLINK-1557,2020-055H,2021-02-06T10:11:31.610688,15.06403567,.0002281,53.0556,184.1867,97.3668,262.7581,0,U,46034,999,2893,.45037E-4,.389E-5,0
STARLINK-1558,2020-055J,2021-02-06T10:22:07.174272,15.06393658,.0002229,53.0569,184.1599,104.8752,255.2483,0,U,46035,999,2896,-.59857E-4,-.1173E-4,0
STARLINK-1560,2020-055K,2021-02-06T13:11:58.156224,15.06397787,.0001971,53.0566,183.6215,104.2974,255.8234,0,U,46036,999,2898,.45403E-4,.395E-5,0
