ZHEDA PIXING 3A         
1 45795U 20039B   21037.49257642  .00001189  00000-0  51399-4 0  9996
2 45795  97.3416 159.9447 0014502 158.9844 263.4990 15.24321834 35657
HEAD-5                  
1 45796U 20039C   21037.56291959  .00001714  00000-0  71732-4 0  9991
2 45796  97.3416 160.1375 0014571 163.7495 254.6327 15.24833091 35675
RED-EYE 2 (MERLOT)      
1 45800U 98067RM  21037.18043172  .00003051  00000-0  57813-4 0  9993
2 45800  51.6413 268.4542 0001744 150.1209 209.9881 15.51767936 36291
BEIDOU-3 G3             
1 45807U 20040A   21037.13729948 -.00000357  00000-0  00000-0 0  9992
2 45807   2.5862 298.3866 0010161  12.6759 345.3719  1.00272878  2458
RED-EYE 3 (CABERNET)    
1 45809U 98067RN  21037.43862337  .00003017  00000-0  57264-4 0  9994
2 45809  51.6413 267.1789 0002027 143.8947 216.2180 15.51769807 35316
NAVSTAR 79 (USA 304)    
1 45854U 20041A   21037.30795028 -.00000046  00000-0  00000-0 0  9991
2 45854  55.1786 106.1090 0009193 146.0705 214.0360  2.00567266  4781
GAOFEN DUOMO (GFDM)     
1 45856U 20042A   21037.49742858  .00000063  00000-0  16346-4 0  9999
2 45856  97.9939 114.7395 0013367 289.3400  70.6366 14.76738256 32228
BY70-2                  
1 45857U 20042B   21037.40776078  .00000998  00000-0  14995-3 0  9996
2 45857  97.9947 114.4989 0009615 272.8873  87.1237 14.76668433 32203
SHIYAN 6 02 (SY-6 02)   
1 45859U 20043A   21037.61056047  .00000048  00000-0  16680-4 0  9999
2 45859  98.2056  49.5288 0007785 316.3700  43.6889 14.69445084 31700
APSTAR 6D               
1 45863U 20045A   21036.58560834 -.00000323  00000-0  00000-0 0  9997
2 45863   0.0453 101.4679 0001340 266.6505 112.5843  1.00267893  2233
DEMI                    
1 45916U 98067RP  21037.34349486  .00007523  00000-0  11968-3 0  9994
2 45916  51.6408 265.8046 0003025 104.4271 255.7055 15.54381382 32319
TECHEDSAT 10            
1 45917U 98067RQ  21037.29826623  .00117171  00000-0  74745-3 0  9995
2 45917  51.6319 255.6965 0006873 178.1559 181.9467 15.75493874 32397
KOREASAT 116            
1 45920U 20048A   21037.57271539 -.00000370  00000-0  00000-0 0  9997
2 45920   0.0178  89.3372 0000971 235.5197 134.4164  1.00270501  2022
PROGRESS-MS 15          
1 45937U 20050A   21037.51551324 -.00000408  00000-0  74497-6 0  9994
2 45937  51.6454 269.0412 0002515 341.0902  88.5859 15.48935862268348
2020-051A               
1 45939U 20051A   21037.56062230  .00000551  00000-0  27753-4 0  9994
2 45939  97.4776 116.2768 0012079   4.8225 106.2526 15.21315816 29874
2020-051B               
1 45940U 20051B   21037.54366043  .00002130  00000-0  86090-4 0  9997
2 45940  97.4772 117.3523 0010177 311.5879 162.1700 15.25834654 29924
2020-051C               
1 45941U 20051C   21037.56124829  .00001105  00000-0  46534-4 0  9994
2 45941  97.4785 117.3708 0011015 311.2367 160.1538 15.25457944 29925
2020-053A               
1 45985U 20053A   21037.39771829 -.00000328  00000-0  00000-0 0  9994
2 45985   0.0415 270.9815 0001339 122.5015 349.3895  1.00268622  2029
2020-053B               
1 45986U 20053B   21036.84980148 -.00000141  00000-0  00000-0 0  9993
2 45986   0.0378 252.6846 0000715 299.8322 329.5916  1.00271271  2012
GAOFEN 9-04             
1 46025U 20054A   21037.53525642  .00000745  00000-0  34104-4 0  9995
2 46025  97.4519 113.9874 0013217 335.3517 138.3496 15.23577902 28069
Q-SAT                   
1 46026U 20054B   21037.52241433  .00001158  00000-0  50073-4 0  9990
2 46026  97.4513 114.1522 0016472 347.0332 137.9487 15.24391839 28089
STARLINK-1522           
1 46027U 20055A   21037.44678876  .00000667  00000-0  63646-4 0  9992
2 46027  53.0567 184.0975 0001749 102.1777 257.9408 15.06399983 28959
STARLINK-1523           
1 46028U 20055B   21037.39516613  .00000221  00000-0  33760-4 0  9997
2 46028  53.0572 184.3086 0001710 102.6986 257.4195 15.06385829 28960
STARLINK-1526           
1 46029U 20055C   21037.45412530  .00001146  00000-0  95769-4 0  9992
2 46029  53.0605 184.0416 0001945 104.5252 255.5953 15.06415927 28963
STARLINK-1534           
1 46030U 20055D   21037.53892731  .00000235  00000-0  34697-4 0  9999
2 46030  53.0566 183.6723 0001641  91.8055 268.3122 15.06388551 28938
STARLINK-1544           
1 46031U 20055E   21037.54259266  .00000459  00000-0  49715-4 0  9996
2 46031  53.0553 183.6564 0002151 108.0758 252.0466 15.06407648 28969
STARLINK-1555           
1 46032U 20055F   21037.43939027  .00000349  00000-0  42326-4 0  9994
2 46032  53.0568 184.1167 0002238  98.2364 261.8879 15.06408839 28969
STARLINK-1556           
1 46033U 20055G   21037.55366420  .00000454  00000-0  49353-4 0  9993
2 46033  53.0578 183.6059 0002083 112.0552 248.0658 15.06405702 28954
STARLINK-1557           
1 46034U 20055H   21037.42467142  .00000389  00000-0  45037-4 0  9995
2 46034  53.0556 184.1867 0002281  97.3668 262.7581 15.06403567 28930
STARLINK-1558           
1 46035U 20055J   21037.43202748 -.00001173  00000-0 -59857-4 0  9995
2 46035  53.0569 184.1599 0002229 104.8752 255.2483 15.06393658 28967
STARLINK-1560           
1 46036U 20055K   21037.54997866  .00000395  00000-0  45403-4 0  9995
2 46036  53.0566 183.6215 0001971 104.2974 255.8234 15.06397787 28986
